STARLINK-36612
1 67580U 26016V   26090.83335647 -.01924871  00000+0 -62022-1 0  9993
2 67580  97.2843 152.0311 0001872  90.7481 288.7516 15.35727028  5924
